{"type": "FeatureCollection", "features": [ {"type": "Feature", "properties": {"norad_id": 65943, "name": "E-KAGAKU-1", "group": "stations", "lat": 51.416144252753355, "lon": -118.9879345965362, "alt_km": 384.1386722885363, "timestamp": "2025-12-09T04:51:46.308108+00:00", "meta": {"OBJECT_NAME": "E-KAGAKU-1", "OBJECT_ID": "1998-067XQ", "EPOCH": "2025-12-07T18:38:39.521184", "MEAN_MOTION": 15.58562644, "ECCENTRICITY": 0.00029586, "INCLINATION": 51.6295, "RA_OF_ASC_NODE": 164.9078, "ARG_OF_PERICENTER": 173.7443, "MEAN_ANOMALY": 186.3587, "EPHEMERIS_TYPE": 0, "CLASSIFICATION_TYPE": "U", "NORAD_CAT_ID": 65943, "ELEMENT_SET_NO": 999, "REV_AT_EPOCH": 908, "BSTAR": 0.0011280115, "MEAN_MOTION_DOT": 0.00088516, "MEAN_MOTION_DDOT": 0}, "tle": {"line1": "1 65943U 98067XQ  25341.77684631  .00088516  00000+0  11280-2 0  9995", "line2": "2 65943  51.6295 164.9078 0002958 173.7443 186.3587 15.58562644  9086"}}, "geometry": {"type": "Point", "coordinates": [-118.9879345965362, 51.416144252753355]}}, {"type": "Feature", "properties": {"norad_id": 66052, "name": "HRC MONOBLOCK CAMERA", "group": "stations", "lat": 33.32989288123124, "lon": -52.26571336604112, "alt_km": 399.2121064303219, "timestamp": "2025-12-09T04:51:46.308119+00:00", "meta": {"OBJECT_NAME": "HRC MONOBLOCK CAMERA", "OBJECT_ID": "1998-067XR", "EPOCH": "2025-12-08T19:01:14.871936", "MEAN_MOTION": 15.53732903, "ECCENTRICITY": 0.0003872, "INCLINATION": 51.6286, "RA_OF_ASC_NODE": 161.1826, "ARG_OF_PERICENTER": 167.7152, "MEAN_ANOMALY": 192.3934, "EPHEMERIS_TYPE": 0, "CLASSIFICATION_TYPE": "U", "NORAD_CAT_ID": 66052, "ELEMENT_SET_NO": 999, "REV_AT_EPOCH": 822, "BSTAR": 0.00066164, "MEAN_MOTION_DOT": 0.00042937, "MEAN_MOTION_DDOT": 0}, "tle": {"line1": "1 66052U 98067XR  25342.79253324  .00042937  00000+0  66164-3 0  9990", "line2": "2 66052  51.6286 161.1826 0003872 167.7152 192.3934 15.53732903  8224"}}, "geometry": {"type": "Point", "coordinates": [-52.26571336604112, 33.32989288123124]}}, {"type": "Feature", "properties": {"norad_id": 66174, "name": "HTV-X1", "group": "stations", "lat": 51.35680577430866, "lon": -117.72501698082972, "alt_km": 413.0091243272145, "timestamp": "2025-12-09T04:51:46.308129+00:00", "meta": {"OBJECT_NAME": "HTV-X1", "OBJECT_ID": "2025-241A", "EPOCH": "2025-12-08T13:01:02.621280", "MEAN_MOTION": 15.49420853, "ECCENTRICITY": 0.00033936, "INCLINATION": 51.6307, "RA_OF_ASC_NODE": 163.2617, "ARG_OF_PERICENTER": 220.7658, "MEAN_ANOMALY": 139.3077, "EPHEMERIS_TYPE": 0, "CLASSIFICATION_TYPE": "U", "NORAD_CAT_ID": 66174, "ELEMENT_SET_NO": 999, "REV_AT_EPOCH": 51, "BSTAR": 0.00023027995, "MEAN_MOTION_DOT": 0.00012445, "MEAN_MOTION_DDOT": 0}, "tle": {"line1": "1 66174U 25241A   25342.54239145  .00012445  00000+0  23028-3 0  9990", "line2": "2 66174  51.6307 163.2617 0003393 220.7658 139.3077 15.49420853   519"}}, "geometry": {"type": "Point", "coordinates": [-117.72501698082972, 51.35680577430866]}}, {"type": "Feature", "properties": {"norad_id": 66515, "name": "SZ-21 MODULE", "group": "stations", "lat": -38.7644272189785, "lon": -27.750328066740558, "alt_km": 381.3773313102547, "timestamp": "2025-12-09T04:51:46.308139+00:00", "meta": {"OBJECT_NAME": "SZ-21 MODULE", "OBJECT_ID": "2025-246C", "EPOCH": "2025-12-08T12:17:19.006656", "MEAN_MOTION": 15.62178331, "ECCENTRICITY": 0.00062383, "INCLINATION": 41.4773, "RA_OF_ASC_NODE": 41.8306, "ARG_OF_PERICENTER": 236.9164, "MEAN_ANOMALY": 123.1077, "EPHEMERIS_TYPE": 0, "CLASSIFICATION_TYPE": "U", "NORAD_CAT_ID": 66515, "ELEMENT_SET_NO": 999, "REV_AT_EPOCH": 378, "BSTAR": 0.00033876447, "MEAN_MOTION_DOT": 0.00030446, "MEAN_MOTION_DDOT": 0}, "tle": {"line1": "1 66515U 25246C   25342.51202554  .00030446  00000+0  33876-3 0  9998", "line2": "2 66515  41.4773  41.8306 0006238 236.9164 123.1077 15.62178331  3789"}}, "geometry": {"type": "Point", "coordinates": [-27.750328066740558, -38.7644272189785]}}, {"type": "Feature", "properties": {"norad_id": 66645, "name": "SHENZHOU-22", "group": "stations", "lat": 36.027284962249624, "lon": 93.61826352731384, "alt_km": 381.810145955249, "timestamp": "2025-12-09T04:51:46.308149+00:00", "meta": {"OBJECT_NAME": "SHENZHOU-22", "OBJECT_ID": "2025-272A", "EPOCH": "2025-12-08T14:45:28.776096", "MEAN_MOTION": 15.58905517, "ECCENTRICITY": 0.00091311, "INCLINATION": 41.4682, "RA_OF_ASC_NODE": 41.7451, "ARG_OF_PERICENTER": 357.4459, "MEAN_ANOMALY": 2.6332, "EPHEMERIS_TYPE": 0, "CLASSIFICATION_TYPE": "U", "NORAD_CAT_ID": 66645, "ELEMENT_SET_NO": 999, "REV_AT_EPOCH": 26300, "BSTAR": 0.0003572809, "MEAN_MOTION_DOT": 0.0002832, "MEAN_MOTION_DDOT": 0}, "tle": {"line1": "1 66645U 25272A   25342.61491639  .00028320  00000+0  35728-3 0  9992", "line2": "2 66645  41.4682  41.7451 0009131 357.4459   2.6332 15.58905517263000"}}, "geometry": {"type": "Point", "coordinates": [93.61826352731384, 36.027284962249624]}}, {"type": "Feature", "properties": {"norad_id": 66664, "name": "SOYUZ-MS 28", "group": "stations", "lat": 51.35680521849799, "lon": -117.72502539348439, "alt_km": 413.00962926549437, "timestamp": "2025-12-09T04:51:46.308166+00:00", "meta": {"OBJECT_NAME": "SOYUZ-MS 28", "OBJECT_ID": "2025-275A", "EPOCH": "2025-12-08T13:01:02.621280", "MEAN_MOTION": 15.49420853, "ECCENTRICITY": 0.0003394, "INCLINATION": 51.6307, "RA_OF_ASC_NODE": 163.2617, "ARG_OF_PERICENTER": 220.7658, "MEAN_ANOMALY": 139.3077, "EPHEMERIS_TYPE": 0, "CLASSIFICATION_TYPE": "U", "NORAD_CAT_ID": 66664, "ELEMENT_SET_NO": 999, "REV_AT_EPOCH": 179, "BSTAR": 0.00023028, "MEAN_MOTION_DOT": 0.00012445, "MEAN_MOTION_DDOT": 0}, "tle": {"line1": "1 66664U 25275A   25342.54239145  .00012445  00000+0  23028-3 0  9991", "line2": "2 66664  51.6307 163.2617 0003394 220.7658 139.3077 15.49420853  1795"}}, "geometry": {"type": "Point", "coordinates": [-117.72502539348439, 51.35680521849799]}}, {"type": "Feature", "properties": {"norad_id": 66906, "name": "1998-067XS", "group": "stations", "lat": 49.84717330028222, "lon": -89.95165474888894, "alt_km": 408.71302493699113, "timestamp": "2025-12-09T04:51:46.308177+00:00", "meta": {"OBJECT_NAME": "1998-067XS", "OBJECT_ID": "1998-067XS", "EPOCH": "2025-12-08T19:08:19.953024", "MEAN_MOTION": 15.50265121, "ECCENTRICITY": 0.0004022, "INCLINATION": 51.6298, "RA_OF_ASC_NODE": 161.9654, "ARG_OF_PERICENTER": 184.9972, "MEAN_ANOMALY": 175.0977, "EPHEMERIS_TYPE": 0, "CLASSIFICATION_TYPE": "U", "NORAD_CAT_ID": 66906, "ELEMENT_SET_NO": 999, "REV_AT_EPOCH": 100, "BSTAR": 0.00055816, "MEAN_MOTION_DOT": 0.00031833, "MEAN_MOTION_DDOT": 0}, "tle": {"line1": "1 66906U 98067XS  25342.79745316  .00031833  00000+0  55816-3 0  9990", "line2": "2 66906  51.6298 161.9654 0004022 184.9972 175.0977 15.50265121  1005"}}, "geometry": {"type": "Point", "coordinates": [-89.95165474888894, 49.84717330028222]}}, {"type": "Feature", "properties": {"norad_id": 66907, "name": "1998-067XT", "group": "stations", "lat": 47.78494655925028, "lon": -80.90444878960245, "alt_km": 408.1538438400812, "timestamp": "2025-12-09T04:51:46.308187+00:00", "meta": {"OBJECT_NAME": "1998-067XT", "OBJECT_ID": "1998-067XT", "EPOCH": "2025-12-08T19:06:53.693856", "MEAN_MOTION": 15.50762002, "ECCENTRICITY": 0.0004972, "INCLINATION": 51.6302, "RA_OF_ASC_NODE": 161.9586, "ARG_OF_PERICENTER": 204.3216, "MEAN_ANOMALY": 155.7539, "EPHEMERIS_TYPE": 0, "CLASSIFICATION_TYPE": "U", "NORAD_CAT_ID": 66907, "ELEMENT_SET_NO": 999, "REV_AT_EPOCH": 100, "BSTAR": 0.0012614, "MEAN_MOTION_DOT": 0.00074227, "MEAN_MOTION_DDOT": 0}, "tle": {"line1": "1 66907U 98067XT  25342.79645479  .00074227  00000+0  12614-2 0  9992", "line2": "2 66907  51.6302 161.9586 0004972 204.3216 155.7539 15.50762002  1007"}}, "geometry": {"type": "Point", "coordinates": [-80.90444878960245, 47.78494655925028]}}, {"type": "Feature", "properties": {"norad_id": 66908, "name": "1998-067XU", "group": "stations", "lat": 47.36274737411585, "lon": -79.43354857525338, "alt_km": 407.981782584181, "timestamp": "2025-12-09T04:51:46.308199+00:00", "meta": {"OBJECT_NAME": "1998-067XU", "OBJECT_ID": "1998-067XU", "EPOCH": "2025-12-08T19:06:37.819584", "MEAN_MOTION": 15.50799834, "ECCENTRICITY": 0.0005158, "INCLINATION": 51.6297, "RA_OF_ASC_NODE": 161.9574, "ARG_OF_PERICENTER": 203.0343, "MEAN_ANOMALY": 157.0415, "EPHEMERIS_TYPE": 0, "CLASSIFICATION_TYPE": "U", "NORAD_CAT_ID": 66908, "ELEMENT_SET_NO": 999, "REV_AT_EPOCH": 100, "BSTAR": 0.0012102, "MEAN_MOTION_DOT": 0.00071266, "MEAN_MOTION_DDOT": 0}, "tle": {"line1": "1 66908U 98067XU  25342.79627106  .00071266  00000+0  12102-2 0  9992", "line2": "2 66908  51.6297 161.9574 0005158 203.0343 157.0415 15.50799834  1003"}}, "geometry": {"type": "Point", "coordinates": [-79.43354857525338, 47.36274737411585]}}, {"type": "Feature", "properties": {"norad_id": 66909, "name": "SILVERSAT", "group": "stations", "lat": 47.034500719903136, "lon": -78.34695856826389, "alt_km": 407.79564819393, "timestamp": "2025-12-09T04:51:46.308211+00:00", "meta": {"OBJECT_NAME": "SILVERSAT", "OBJECT_ID": "1998-067XV", "EPOCH": "2025-12-08T17:33:40.093056", "MEAN_MOTION": 15.50878297, "ECCENTRICITY": 0.0005012, "INCLINATION": 51.6297, "RA_OF_ASC_NODE": 162.2763, "ARG_OF_PERICENTER": 204.4469, "MEAN_ANOMALY": 155.6283, "EPHEMERIS_TYPE": 0, "CLASSIFICATION_TYPE": "U", "NORAD_CAT_ID": 66909, "ELEMENT_SET_NO": 999, "REV_AT_EPOCH": 99, "BSTAR": 0.0013404, "MEAN_MOTION_DOT": 0.00079284, "MEAN_MOTION_DDOT": 0}, "tle": {"line1": "1 66909U 98067XV  25342.73171404  .00079284  00000+0  13404-2 0  9996", "line2": "2 66909  51.6297 162.2763 0005012 204.4469 155.6283 15.50878297   996"}}, "geometry": {"type": "Point", "coordinates": [-78.34695856826389, 47.034500719903136]}}]}